NORAD_CAT_ID,OBJECT_NAME,OBJECT_TYPE,EPOCH,MEAN_MOTION,ECCENTRICITY,INCLINATION,RA_OF_ASC_NODE,ARG_OF_PERICENTER,MEAN_ANOMALY,BSTAR,MEAN_MOTION_DOT,MEAN_MOTION_DDOT,TLE_LINE0,TLE_LINE1,TLE_LINE2,SEMIMAJOR_AXIS,PERIOD,APOGEE,PERIGEE,DECAYED
51751.0,STARLINK-3506,PAYLOAD,2023-11-30 11:02:08,15.08839914,0.0001608,53.2179,76.1709,95.234,264.8836,-4.2773e-05,-9.69e-06,0.0,0 STARLINK-3506,1 51751U 22016AP  23334.45982343 -.00000969  00000-0 -42773-4 0  9996,2 51751  53.2179  76.1709 0001608  95.2340 264.8836 15.08839914 99470,6917.881,95.438,540.858,538.633,0.0
51751.0,STARLINK-3506,PAYLOAD,2023-12-01 14:03:41,15.08853019,0.0001507,53.2186,71.1228,92.5458,267.5707,0.0001407,1.953e-05,0.0,0 STARLINK-3506,1 51751U 22016AP  23335.58589935  .00001953  00000-0  14070-3 0  9991,2 51751  53.2186  71.1228 0001507  92.5458 267.5707 15.08853019 99645,6917.841,95.437,540.748,538.663,0.0
51751.0,STARLINK-3506,PAYLOAD,2023-12-02 12:19:06,15.08828255,0.0001639,53.2177,66.9587,55.0159,305.0987,-0.00016416,-2.899e-05,0.0,0 STARLINK-3506,1 51751U 22016AP  23336.51326390 -.00002899  00000-0 -16416-3 0  9997,2 51751  53.2177  66.9587 0001639  55.0159 305.0987 15.08828255 99780,6917.916,95.438,540.915,538.647,0.0
51751.0,STARLINK-3506,PAYLOAD,2023-12-02 13:54:29,15.08819612,0.0001582,53.2179,66.6659,70.4116,289.7047,-0.0002955,-4.985e-05,0.0,0 STARLINK-3506,1 51751U 22016AP  23336.57950793 -.00004985  00000-0 -29550-3 0  9994,2 51751  53.2179  66.6659 0001582  70.4116 289.7047 15.08819612 98680,6917.943,95.439,540.902,538.713,0.0
51751.0,STARLINK-3506,PAYLOAD,2023-12-03 12:09:55,15.08807747,0.000146,53.2177,62.5012,82.5974,277.5184,-0.00044288,-7.323e-05,0.0,0 STARLINK-3506,1 51751U 22016AP  23337.50689399 -.00007323  00000-0 -44288-3 0  9993,2 51751  53.2177  62.5012 0001460  82.5974 277.5184 15.08807747 99940,6917.979,95.44,540.854,538.834,0.0
51751.0,STARLINK-3506,PAYLOAD,2023-12-04 12:00:41,15.08833421,0.0001488,53.219,58.0403,86.6805,273.4357,0.0003932,5.974e-05,0.0,0 STARLINK-3506,1 51751U 22016AP  23338.50047649  .00005974  00000-0  39320-3 0  9999,2 51751  53.2190  58.0403 0001488  86.6805 273.4357 15.08833421100080,6917.9,95.438,540.795,538.736,0.0
51751.0,STARLINK-3506,PAYLOAD,2023-12-05 11:51:28,15.0884427,0.0001447,53.2187,53.5803,97.5575,262.5581,0.00047501,7.281e-05,0.0,0 STARLINK-3506,1 51751U 22016AP  23339.49407526  .00007281  00000-0  47501-3 0  9995,2 51751  53.2187  53.5803 0001447  97.5575 262.5581 15.08844270 99124,6917.867,95.437,540.733,538.731,0.0
51751.0,STARLINK-3506,PAYLOAD,2023-12-06 11:42:15,15.08854296,0.0001447,53.2189,49.1166,113.8278,246.2866,-5.2774e-05,-1.128e-05,0.0,0 STARLINK-3506,1 51751U 22016AP  23340.48767382 -.00001128  00000-0 -52774-4 0  9990,2 51751  53.2189  49.1166 0001447 113.8278 246.2866 15.08854296100386,6917.837,95.437,540.703,538.701,0.0
51751.0,STARLINK-3506,PAYLOAD,2023-12-07 05:11:29,15.08844848,0.000145,53.2188,45.8459,110.4516,249.6632,-9.9948e-05,-1.878e-05,0.0,0 STARLINK-3506,1 51751U 22016AP  23341.21631686 -.00001878  00000-0 -99948-4 0  9995,2 51751  53.2188  45.8459 0001450 110.4516 249.6632 15.08844848100497,6917.866,95.437,540.734,538.727,0.0
51751.0,STARLINK-3506,PAYLOAD,2023-12-07 09:57:39,15.08845747,0.0001389,53.2185,44.9533,103.1834,256.9313,-0.00010799,-2.006e-05,0.0,0 STARLINK-3506,1 51751U 22016AP  23341.41503572 -.00002006  00000-0 -10799-3 0  9999,2 51751  53.2185  44.9533 0001389 103.1834 256.9313 15.08845747 99415,6917.863,95.437,540.689,538.767,0.0
51751.0,STARLINK-3506,PAYLOAD,2023-12-08 11:23:49,15.08839209,0.00014,53.2184,40.1995,97.9709,262.1442,4.3779e-05,4.09e-06,0.0,0 STARLINK-3506,1 51751U 22016AP  23342.47487610  .00000409  00000-0  43779-4 0  9998,2 51751  53.2184  40.1995 0001400  97.9709 262.1442 15.08839209100689,6917.883,95.438,540.716,538.779,0.0
51751.0,STARLINK-3506,PAYLOAD,2023-12-08 12:59:12,15.08840228,0.0001442,53.2185,39.9022,102.0814,258.034,5.1541e-05,5.32e-06,0.0,0 STARLINK-3506,1 51751U 22016AP  23342.54111509  .00000532  00000-0  51541-4 0  9990,2 51751  53.2185  39.9022 0001442 102.0814 258.0340 15.08840228 99588,6917.88,95.438,540.742,538.747,0.0
51751.0,STARLINK-3506,PAYLOAD,2023-12-09 12:49:59,15.0883666,0.0001586,53.2193,35.4376,91.7463,268.3711,8.2571e-05,1.026e-05,0.0,0 STARLINK-3506,1 51751U 22016AP  23343.53471895  .00001026  00000-0  82571-4 0  9993,2 51751  53.2193  35.4376 0001586  91.7463 268.3711 15.08836660 99731,6917.891,95.438,540.853,538.658,0.0
51751.0,STARLINK-3506,PAYLOAD,2023-12-10 12:40:46,15.08841446,0.0001668,53.2197,30.9742,83.5822,276.536,4.3334e-05,4.02e-06,0.0,0 STARLINK-3506,1 51751U 22016AP  23344.52831858  .00000402  00000-0  43334-4 0  9993,2 51751  53.2197  30.9742 0001668  83.5822 276.5360 15.08841446 99886,6917.876,95.437,540.895,538.587,0.0
51751.0,STARLINK-3506,PAYLOAD,2023-12-11 09:20:47,15.08842715,0.000161,53.2191,27.1089,79.0026,281.1147,4.5844e-05,4.42e-06,0.0,0 STARLINK-3506,1 51751U 22016AP  23345.38943724  .00000442  00000-0  45844-4 0  9996,2 51751  53.2191  27.1089 0001610  79.0026 281.1147 15.08842715101121,6917.872,95.437,540.851,538.623,0.0
51751.0,STARLINK-3506,PAYLOAD,2023-12-12 09:11:34,15.08841493,0.0001458,53.2176,22.652,87.0995,273.0164,4.6268e-05,4.48e-06,0.0,0 STARLINK-3506,1 51751U 22016AP  23346.38303649  .00000448  00000-0  46268-4 0  9990,2 51751  53.2176  22.6520 0001458  87.0995 273.0164 15.08841493100162,6917.876,95.437,540.749,538.732,0.0
51751.0,STARLINK-3506,PAYLOAD,2023-12-13 09:02:21,15.08838539,0.0001585,53.2186,18.1914,106.4376,253.6791,1.3886e-05,-6.7e-07,0.0,0 STARLINK-3506,1 51751U 22016AP  23347.37663853 -.00000067  00000-0  13886-4 0  9994,2 51751  53.2186  18.1914 0001585 106.4376 253.6791 15.08838539101427,6917.885,95.438,540.846,538.653,0.0
51751.0,STARLINK-3506,PAYLOAD,2023-12-14 08:53:08,15.08839558,0.0001595,53.2186,13.7299,107.7269,252.3897,3.622e-05,2.88e-06,0.0,0 STARLINK-3506,1 51751U 22016AP  23348.37023812  .00000288  00000-0  36220-4 0  9991,2 51751  53.2186  13.7299 0001595 107.7269 252.3897 15.08839558100468,6917.882,95.438,540.85,538.643,0.0
51751.0,STARLINK-3506,PAYLOAD,2023-12-15 07:08:32,15.08835441,0.0001565,53.2187,9.5682,105.6584,254.4581,2.3614e-05,8.8e-07,0.0,0 STARLINK-3506,1 51751U 22016AP  23349.29760328  .00000088  00000-0  23614-4 0  9994,2 51751  53.2187   9.5682 0001565 105.6584 254.4581 15.08835441101711,6917.894,95.438,540.842,538.677,0.0
51751.0,STARLINK-3506,PAYLOAD,2023-12-16 08:34:43,15.08838423,0.0001476,53.2182,4.8085,89.4456,270.6705,3.5544e-05,2.78e-06,0.0,0 STARLINK-3506,1 51751U 22016AP  23350.35744592  .00000278  00000-0  35544-4 0  9994,2 51751  53.2182   4.8085 0001476  89.4456 270.6705 15.08838423101877,6917.885,95.438,540.771,538.729,0.0
51751.0,STARLINK-3506,PAYLOAD,2023-12-17 08:25:30,15.08837653,0.0001523,53.2181,0.3501,82.0019,278.1146,9.5249e-05,1.228e-05,0.0,0 STARLINK-3506,1 51751U 22016AP  23351.35104783  .00001228  00000-0  95249-4 0  9991,2 51751  53.2181   0.3501 0001523  82.0019 278.1146 15.08837653100917,6917.888,95.438,540.806,538.699,0.0
51751.0,STARLINK-3506,PAYLOAD,2023-12-18 08:16:16,15.08852972,0.0001913,53.2192,355.8885,69.1674,290.9523,0.00016859,2.397e-05,0.0,0 STARLINK-3506,1 51751U 22016AP  23352.34463757  .00002397  00000-0  16859-3 0  9997,2 51751  53.2192 355.8885 0001913  69.1674 290.9523 15.08852972102170,6917.841,95.437,541.029,538.382,0.0
51751.0,STARLINK-3506,PAYLOAD,2023-12-19 06:31:42,15.08834464,0.0001477,53.2176,351.7296,96.7435,263.3725,-2.1997e-05,-6.38e-06,0.0,0 STARLINK-3506,1 51751U 22016AP  23353.27201565 -.00000638  00000-0 -21997-4 0  9995,2 51751  53.2176 351.7296 0001477  96.7435 263.3725 15.08834464102320,6917.897,95.438,540.784,538.741,0.0
51751.0,STARLINK-3506,PAYLOAD,2023-12-20 03:11:42,15.0884752,0.0001472,53.2184,347.8609,80.4743,279.6416,-5.4929e-05,-1.162e-05,0.0,0 STARLINK-3506,1 51751U 22016AP  23354.13313065 -.00001162  00000-0 -54929-4 0  9994,2 51751  53.2184 347.8609 0001472  80.4743 279.6416 15.08847520102447,6917.857,95.437,540.741,538.704,0.0
51751.0,STARLINK-3506,PAYLOAD,2023-12-20 06:22:28,15.08852425,0.0001492,53.2186,347.2649,96.135,263.9812,-3.4716e-05,-8.41e-06,0.0,0 STARLINK-3506,1 51751U 22016AP  23354.26560611 -.00000841  00000-0 -34716-4 0  9994,2 51751  53.2186 347.2649 0001492  96.1350 263.9812 15.08852425101352,6917.842,95.437,540.74,538.675,0.0
51751.0,STARLINK-3506,PAYLOAD,2023-12-21 06:13:15,15.08850051,0.0001505,53.2179,342.7983,92.8552,267.2613,0.00028182,4.201e-05,0.0,0 STARLINK-3506,1 51751U 22016AP  23355.25920675  .00004201  00000-0  28182-3 0  9995,2 51751  53.2179 342.7983 0001505  92.8552 267.2613 15.08850051102627,6917.85,95.437,540.756,538.674,0.0
51751.0,STARLINK-3506,PAYLOAD,2023-12-22 04:28:39,15.08839074,0.0001753,53.2185,338.6357,114.4573,245.6602,-1.1076e-05,-4.64e-06,0.0,0 STARLINK-3506,1 51751U 22016AP  23356.18657067 -.00000464  00000-0 -11076-4 0  9994,2 51751  53.2185 338.6357 0001753 114.4573 245.6602 15.08839074102767,6917.883,95.438,540.961,538.536,0.0
51751.0,STARLINK-3506,PAYLOAD,2023-12-23 07:30:12,15.08846494,0.0001555,53.218,333.5822,102.0937,258.023,0.000142,1.973e-05,0.0,0 STARLINK-3506,1 51751U 22016AP  23357.31264966  .00001973  00000-0  14200-3 0  9997,2 51751  53.2180 333.5822 0001555 102.0937 258.0230 15.08846494102938,6917.861,95.437,540.801,538.65,0.0
51751.0,STARLINK-3506,PAYLOAD,2023-12-24 04:10:14,15.0883601,0.0001726,53.2177,329.7202,98.7696,261.3492,0.00011591,1.557e-05,0.0,0 STARLINK-3506,1 51751U 22016AP  23358.17377880  .00001557  00000-0  11591-3 0  9990,2 51751  53.2177 329.7202 0001726  98.7696 261.3492 15.08836010103061,6917.893,95.438,540.952,538.564,0.0
51751.0,STARLINK-3506,PAYLOAD,2023-12-24 05:45:37,15.08838143,0.0001573,53.2174,329.4226,86.0671,274.0501,0.00013931,1.93e-05,0.0,0 STARLINK-3506,1 51751U 22016AP  23358.24001852  .00001930  00000-0  13931-3 0  9996,2 51751  53.2174 329.4226 0001573  86.0671 274.0501 15.08838143101951,6917.886,95.438,540.839,538.663,0.0
